PROBA-1                 
1 26958U 01049B   26194.48713213  .00001854  00000+0  12212-3 0  9993
2 26958  97.9604 203.9390 0055880  35.3715 325.1198 15.07613197347589
CUTE-1 (CO-55)          
1 27844U 03031E   26194.45028444  .00000157  00000+0  86848-4 0  9995
2 27844  98.6742 202.6793 0010803 107.1223 253.1140 14.24350896195418
CUBESAT XI-IV (CO-57)   
1 27848U 03031J   26194.45194122  .00000131  00000+0  76714-4 0  9999
2 27848  98.6773 202.3723 0010479 123.9671 236.2505 14.23633987195116
APRIZESAT 4             
1 35684U 09041D   26193.74598681  .00000345  00000+0  48023-4 0  9991
2 35684  98.1404 269.5752 0042095 237.6607 122.0528 14.83911924915154
APRIZESAT 3             
1 35686U 09041F   26194.38011458  .00001048  00000+0  95315-4 0  9993
2 35686  98.2095 348.8641 0060907 341.9315  17.9739 14.96307525920295
PROBA-2                 
1 36037U 09059B   26194.51266359  .00000083  00000+0  29776-4 0  9996
2 36037  98.2458  17.5015 0012896 194.0219 166.0622 14.54873268885358
APRIZESAT 5             
1 37792U 11044E   26194.35477183  .00000421  00000+0  60653-4 0  9998
2 37792  98.2450 128.1380 0050710 278.7883  80.7588 14.81125802802667
APRIZESAT 6             
1 37793U 11044F   26194.37625913  .00000395  00000+0  63270-4 0  9995
2 37793  98.2341 105.4085 0043209   4.0847 114.4414 14.76955184801011
PROBA-V                 
1 39159U 13021A   26194.40558917  .00000023  00000+0  28002-4 0  9995
2 39159  98.3605 171.7202 0005306  64.1776 295.9950 14.23603272684844
APRIZESAT 7             
1 39416U 13066A   26194.45095904  .00000434  00000+0  48317-4 0  9994
2 39416  97.7721 147.2959 0037130 122.8826 237.5975 14.91617048685141
APRIZESAT 8             
1 39425U 13066K   26194.37303215  .00000397  00000+0  49031-4 0  9994
2 39425  97.8229 141.4778 0045334 197.9289 162.0330 14.87694875683560
BUGSAT-1 (TITA)         
1 40014U 14033E   26194.50873447  .00002405  00000+0  12836-3 0  9993
2 40014  98.0438 288.6017 0029199  91.4827 268.9749 15.15870547659824
SAUDISAT 4              
1 40016U 14033G   26194.35878012  .00000254  00000+0  40358-4 0  9992
2 40016  97.7614 339.5933 0044407 350.0841   9.9490 14.79574569649942
APRIZESAT 9             
1 40018U 14033J   26194.33887672  .00000348  00000+0  58383-4 0  9995
2 40018  97.9091 326.9028 0067389 115.7820 245.0362 14.74251226647415
APRIZESAT 10            
1 40019U 14033K   26194.31711067  .00000314  00000+0  57208-4 0  9996
2 40019  97.9678 320.6981 0078596 189.3618 170.6128 14.70909592646098
TECHDEMOSAT-1 (TDS-1)   
1 40076U 14037H   26194.47173475  .00004581  00000+0  25897-3 0  9993
2 40076  98.3822 189.2987 0006737 164.2042 195.9398 15.13663578652201
TECHNOSAT               
1 42829U 17042E   26194.37805133  .00002037  00000+0  14687-3 0  9991
2 42829  97.4311 351.0449 0017599   9.3532 350.8019 15.05104462490648
FLYING LAPTOP           
1 42831U 17042G   26194.51381374  .00002065  00000+0  16438-3 0  9993
2 42831  97.4792 349.0548 0019756  37.9105 322.3507 15.01306088490405
HAWK-A                  
1 43765U 18099H   26193.67931597  .00004140  00000+0  16642-3 0  9990
2 43765  97.3903 245.5853 0034451 192.8190 167.2175 15.24944360416982
HAWK-B                  
1 43794U 18099AN  26194.12562476  .00003736  00000+0  15939-3 0  9997
2 43794  97.3951 245.3861 0031175 209.4603 150.4878 15.23101586416986
HAWK-C                  
1 43799U 18099AT  26194.38332840  .00005005  00000+0  17915-3 0  9997
2 43799  97.3879 247.3227 0040056 190.1996 169.8436 15.28472510417918
SALSAT                  
1 46495U 20068K   26194.50246523  .00004373  00000+0  15263-3 0  9999
2 46495  97.8854 199.1769 0008994 199.0887 161.0016 15.30157505319386
HAWK-2C                 
1 47502U 21006CT  26194.16572607  .00004014  00000+0  12052-3 0  9994
2 47502  97.2268 237.9600 0008628 106.6131 253.6060 15.34973140303480
HAWK-2A                 
1 47505U 21006CW  26194.16797016  .00003988  00000+0  11972-3 0  9999
2 47505  97.2311 238.6553 0008146 109.8797 250.3325 15.34987922303486
HAWK-2B                 
1 47508U 21006CZ  26194.48758412  .00004436  00000+0  13234-3 0  9996
2 47508  97.2179 237.2593 0008692 107.3631 252.8564 15.35120483303536
HAWK-3B                 
1 48931U 21059BE  26194.50864334  .00029507  00000+0  22908-3 0  9993
2 48931  97.6631  33.7494 0004319 204.4435 155.6623 15.71758213281984
HAWK-3C                 
1 48948U 21059BX  26194.50832932  .00029274  00000+0  22722-3 0  9995
2 48948  97.6753  39.4797 0004662 205.3009 154.8025 15.71762993281981
HAWK-3A                 
1 48957U 21059CG  26194.50821686  .00028655  00000+0  22247-3 0  9993
2 48957  97.6696  36.6637 0004469 207.8356 152.2667 15.71762141281985
HAWK-5C                 
1 52754U 22057Y   26194.48146775  .00011171  00000+0  18548-3 0  9992
2 52754  97.6607 355.8658 0002976 353.7754   6.3460 15.52285934230422
HAWK-5B                 
1 52756U 22057AA  26194.48128082  .00011177  00000+0  18559-3 0  9993
2 52756  97.6621 354.2188 0003628 339.5578  20.5528 15.52283460230427
